*******************************************************************************
 Revised: Aug 08, 2019            Rhea  / (Saturn)                          605
                        http://ssd.jpl.nasa.gov/?sat_phys_par
                         http://ssd.jpl.nasa.gov/?sat_elem

 SATELLITE PHYSICAL PROPERTIES:
  Mean Radius (km)        = 764.5  +- 2     Density (g/cm^3)  =  1.233 +- 0.010
  Mass (10^19 kg)         = 230.9           Geometric Albedo  =  0.6
  GM (km^3/s^2)           = 153.94 +- 0.16  V(1,0)            = +0.1

 SATELLITE ORBITAL DATA (mean values referred to local Laplace plane):
  Semi-major axis, a (km) = 527.07(10^3)    Orbital period    = 4.518 d
  Eccentricity, e         = 0.001           Rotational period = Synchronous
  Inclination, i  (deg)   = 0.331
*******************************************************************************
 

 

*******************************************************************************
Ephemeris / WWW_USER Fri Dec 27 22:37:24 2019 Pasadena, USA      / Horizons    
*******************************************************************************
Target body name: Rhea (605)                      {source: sat425l_merged_DE438}
Center body name: Saturn (699)                    {source: sat425l_merged_DE438}
Center-site name: BODY CENTER
*******************************************************************************
Start time      : A.D. 2020-Jan-01 00:00:00.0000 TDB
Stop  time      : A.D. 2020-Jan-01 00:01:00.0000 TDB
Step-size       : 60 minutes
*******************************************************************************
Center geodetic : 0.00000000,0.00000000,0.0000000 {W-lon(deg),Lat(deg),Alt(km)}
Center cylindric: 0.00000000,0.00000000,0.0000000 {W-lon(deg),Dxy(km),Dz(km)}
Center radii    : 60268.0 x 60268.0 x 54364.0 km  {Equator, meridian, pole}    
Keplerian GM    : 3.7931360217080116E+07 km^3/s^2
Output units    : KM-S, deg                                                    
Output type     : GEOMETRIC osculating elements
Output format   : 10
Reference frame : ICRF/J2000.0                                                 
Coordinate systm: Ecliptic and Mean Equinox of Reference Epoch                 
*******************************************************************************
            JDTDB,            Calendar Date (TDB),                     EC,                     QR,                     IN,                     OM,                      W,                     Tp,                      N,                     MA,                     TA,                      A,                     AD,                     PR,
**************************************************************************************************************************************************************************************************************************************************************************************************************************************************
$$SOE
2458849.500000000, A.D. 2020-Jan-01 00:00:00.0000,  4.853205436923233E-04,  5.270077070660610E+05,  2.790827952083789E+01,  1.701616218349706E+02,  1.647473355990541E+02,  1.922020747725686E+05,  9.216799844598602E-04,  1.828511947104660E+02,  1.828484300409463E+02,  5.272635989225593E+05,  5.275194907790576E+05,  3.905911011086715E+05,
$$EOE
**************************************************************************************************************************************************************************************************************************************************************************************************************************************************
Coordinate system description:

  Ecliptic and Mean Equinox of Reference Epoch

    Reference epoch: J2000.0
    XY-plane: plane of the Earth's orbit at the reference epoch
              Note: obliquity of 84381.448 arcseconds wrt ICRF equator (IAU76)
    X-axis  : out along ascending node of instantaneous plane of the Earth's
              orbit and the Earth's mean equator at the reference epoch
    Z-axis  : perpendicular to the xy-plane in the directional (+ or -) sense
              of Earth's north pole at the reference epoch.

  Symbol meaning:

    JDTDB    Julian Day Number, Barycentric Dynamical Time
      EC     Eccentricity, e                                                   
      QR     Periapsis distance, q (km)                                        
      IN     Inclination w.r.t XY-plane, i (degrees)                           
      OM     Longitude of Ascending Node, OMEGA, (degrees)                     
      W      Argument of Perifocus, w (degrees)                                
      Tp     Time of periapsis relative to epoch (P-E) (sec)                   
      N      Mean motion, n (degrees/sec)                                      
      MA     Mean anomaly, M (degrees)                                         
      TA     True anomaly, nu (degrees)                                        
      A      Semi-major axis, a (km)                                           
      AD     Apoapsis distance (km)                                            
      PR     Sidereal orbit period (sec)                                       

Geometric states/elements have no aberrations applied.

 Computations by ...
     Solar System Dynamics Group, Horizons On-Line Ephemeris System
     4800 Oak Grove Drive, Jet Propulsion Laboratory
     Pasadena, CA  91109   USA
     Information: http://ssd.jpl.nasa.gov/
     Connect    : telnet://ssd.jpl.nasa.gov:6775  (via browser)
                  http://ssd.jpl.nasa.gov/?horizons
                  telnet ssd.jpl.nasa.gov 6775    (via command-line)
     Author     : Jon.D.Giorgini@jpl.nasa.gov
*******************************************************************************
